{
  "type": "FeatureCollection",
  "features": [
    {
      "type": "Feature",
      "properties": {
        "norad_id": 66504,
        "name": "STARLINK-35916",
        "group": "last-30-days",
        "lat": 42.69197973512843,
        "lon": -100.93954390066828,
        "alt_km": 437.6051691145567,
        "timestamp": "2025-12-06T18:50:08.955387+00:00",
        "meta_object_name": "STARLINK-35916",
        "meta_object_id": "2025-263V",
        "meta_epoch": "2025-12-06T08:00:01.999872",
        "meta_mean_motion": 15.43367902,
        "meta_eccentricity": 0.00010436,
        "meta_inclination": 43,
        "meta_ra_of_asc_node": 163.5495,
        "meta_arg_of_pericenter": 264.8922,
        "meta_mean_anomaly": 201.6651,
        "meta_ephemeris_type": 0,
        "meta_classification_type": "U",
        "meta_norad_cat_id": 66504,
        "meta_element_set_no": 999,
        "meta_rev_at_epoch": 460,
        "meta_bstar": -0.061586135,
        "meta_mean_motion_dot": -0.02489305,
        "meta_mean_motion_ddot": 0,
        "tle_line1": "1 66504U 25263V   25340.33335648 -.02489305  00000+0 -61586-1 0  9997",
        "tle_line2": "2 66504  43.0000 163.5495 0001043 264.8922 201.6651 15.43367902  4605"
      },
      "geometry": {
        "type": "Point",
        "coordinates": [
          -100.93954390066828,
          42.69197973512843
        ]
      }
    },
    {
      "type": "Feature",
      "properties": {
        "norad_id": 66505,
        "name": "STARLINK-34766",
        "group": "last-30-days",
        "lat": 27.67071835342867,
        "lon": -54.29081680137772,
        "alt_km": 392.660901337199,
        "timestamp": "2025-12-06T18:50:08.955397+00:00",
        "meta_object_name": "STARLINK-34766",
        "meta_object_id": "2025-263W",
        "meta_epoch": "2025-12-06T08:00:01.999872",
        "meta_mean_motion": 15.59098063,
        "meta_eccentricity": 0.00015653,
        "meta_inclination": 42.9996,
        "meta_ra_of_asc_node": 162.6245,
        "meta_arg_of_pericenter": 271.6465,
        "meta_mean_anomaly": 209.9856,
        "meta_ephemeris_type": 0,
        "meta_classification_type": "U",
        "meta_norad_cat_id": 66505,
        "meta_element_set_no": 999,
        "meta_rev_at_epoch": 460,
        "meta_bstar": -0.02883875,
        "meta_mean_motion_dot": -0.02027113,
        "meta_mean_motion_ddot": 0,
        "tle_line1": "1 66505U 25263W   25340.33335648 -.02027113  00000+0 -28839-1 0  9997",
        "tle_line2": "2 66505  42.9996 162.6245 0001565 271.6465 209.9856 15.59098063  4602"
      },
      "geometry": {
        "type": "Point",
        "coordinates": [
          -54.29081680137772,
          27.67071835342867
        ]
      }
    },
    {
      "type": "Feature",
      "properties": {
        "norad_id": 66506,
        "name": "STARLINK-34765",
        "group": "last-30-days",
        "lat": 26.577925427508063,
        "lon": -52.52249304722845,
        "alt_km": 392.74879121999675,
        "timestamp": "2025-12-06T18:50:08.955406+00:00",
        "meta_object_name": "STARLINK-34765",
        "meta_object_id": "2025-263X",
        "meta_epoch": "2025-12-06T08:00:01.999872",
        "meta_mean_motion": 15.59098175,
        "meta_eccentricity": 0.00014982,
        "meta_inclination": 42.9995,
        "meta_ra_of_asc_node": 162.6203,
        "meta_arg_of_pericenter": 270.2116,
        "meta_mean_anomaly": 213.3384,
        "meta_ephemeris_type": 0,
        "meta_classification_type": "U",
        "meta_norad_cat_id": 66506,
        "meta_element_set_no": 999,
        "meta_rev_at_epoch": 460,
        "meta_bstar": -0.028848665,
        "meta_mean_motion_dot": -0.02027678,
        "meta_mean_motion_ddot": 0,
        "tle_line1": "1 66506U 25263X   25340.33335648 -.02027678  00000+0 -28849-1 0  9995",
        "tle_line2": "2 66506  42.9995 162.6203 0001498 270.2116 213.3384 15.59098175  4608"
      },
      "geometry": {
        "type": "Point",
        "coordinates": [
          -52.52249304722845,
          26.577925427508063
        ]
      }
    },
    {
      "type": "Feature",
      "properties": {
        "norad_id": 66507,
        "name": "STARLINK-34767",
        "group": "last-30-days",
        "lat": 24.32959139264887,
        "lon": -49.08811822912041,
        "alt_km": 392.9713902020276,
        "timestamp": "2025-12-06T18:50:08.955416+00:00",
        "meta_object_name": "STARLINK-34767",
        "meta_object_id": "2025-263Y",
        "meta_epoch": "2025-12-06T08:00:01.999872",
        "meta_mean_motion": 15.59095174,
        "meta_eccentricity": 0.00014021,
        "meta_inclination": 42.9996,
        "meta_ra_of_asc_node": 162.6097,
        "meta_arg_of_pericenter": 268.5919,
        "meta_mean_anomaly": 218.7944,
        "meta_ephemeris_type": 0,
        "meta_classification_type": "U",
        "meta_norad_cat_id": 66507,
        "meta_element_set_no": 999,
        "meta_rev_at_epoch": 460,
        "meta_bstar": -0.028797114,
        "meta_mean_motion_dot": -0.02024237,
        "meta_mean_motion_ddot": 0,
        "tle_line1": "1 66507U 25263Y   25340.33335648 -.02024237  00000+0 -28797-1 0  9996",
        "tle_line2": "2 66507  42.9996 162.6097 0001402 268.5919 218.7944 15.59095174  4604"
      },
      "geometry": {
        "type": "Point",
        "coordinates": [
          -49.08811822912041,
          24.32959139264887
        ]
      }
    },
    {
      "type": "Feature",
      "properties": {
        "norad_id": 66508,
        "name": "STARLINK-35608",
        "group": "last-30-days",
        "lat": 20.82181686685386,
        "lon": -44.16169210531037,
        "alt_km": 393.4849123328686,
        "timestamp": "2025-12-06T18:50:08.955428+00:00",
        "meta_object_name": "STARLINK-35608",
        "meta_object_id": "2025-263Z",
        "meta_epoch": "2025-12-06T08:00:01.999872",
        "meta_mean_motion": 15.59098575,
        "meta_eccentricity": 0.00015065,
        "meta_inclination": 42.9997,
        "meta_ra_of_asc_node": 162.5963,
        "meta_arg_of_pericenter": 268.9119,
        "meta_mean_anomaly": 224.2221,
        "meta_ephemeris_type": 0,
        "meta_classification_type": "U",
        "meta_norad_cat_id": 66508,
        "meta_element_set_no": 999,
        "meta_rev_at_epoch": 460,
        "meta_bstar": -0.028848446,
        "meta_mean_motion_dot": -0.02027698,
        "meta_mean_motion_ddot": 0,
        "tle_line1": "1 66508U 25263Z   25340.33335648 -.02027698  00000+0 -28848-1 0  9998",
        "tle_line2": "2 66508  42.9997 162.5963 0001506 268.9119 224.2221 15.59098575  4606"
      },
      "geometry": {
        "type": "Point",
        "coordinates": [
          -44.16169210531037,
          20.82181686685386
        ]
      }
    },
    {
      "type": "Feature",
      "properties": {
        "norad_id": 66509,
        "name": "STARLINK-35598",
        "group": "last-30-days",
        "lat": 15.938587540798713,
        "lon": -37.9436566176877,
        "alt_km": 394.0836832385221,
        "timestamp": "2025-12-06T18:50:08.955438+00:00",
        "meta_object_name": "STARLINK-35598",
        "meta_object_id": "2025-263AA",
        "meta_epoch": "2025-12-06T08:00:01.999872",
        "meta_mean_motion": 15.59095686,
        "meta_eccentricity": 0.00014896,
        "meta_inclination": 42.9994,
        "meta_ra_of_asc_node": 162.5748,
        "meta_arg_of_pericenter": 268.3004,
        "meta_mean_anomaly": 232.5038,
        "meta_ephemeris_type": 0,
        "meta_classification_type": "U",
        "meta_norad_cat_id": 66509,
        "meta_element_set_no": 999,
        "meta_rev_at_epoch": 460,
        "meta_bstar": -0.028797785,
        "meta_mean_motion_dot": -0.02024379,
        "meta_mean_motion_ddot": 0,
        "tle_line1": "1 66509U 25263AA  25340.33335648 -.02024379  00000+0 -28798-1 0  9996",
        "tle_line2": "2 66509  42.9994 162.5748 0001489 268.3004 232.5038 15.59095686  4600"
      },
      "geometry": {
        "type": "Point",
        "coordinates": [
          -37.9436566176877,
          15.938587540798713
        ]
      }
    },
    {
      "type": "Feature",
      "properties": {
        "norad_id": 66510,
        "name": "STARLINK-35600",
        "group": "last-30-days",
        "lat": 19.619038322690624,
        "lon": -42.57231919673377,
        "alt_km": 393.56398772664306,
        "timestamp": "2025-12-06T18:50:08.955450+00:00",
        "meta_object_name": "STARLINK-35600",
        "meta_object_id": "2025-263AB",
        "meta_epoch": "2025-12-06T08:00:01.999872",
        "meta_mean_motion": 15.59095922,
        "meta_eccentricity": 0.00013558,
        "meta_inclination": 42.9995,
        "meta_ra_of_asc_node": 162.5898,
        "meta_arg_of_pericenter": 268.0002,
        "meta_mean_anomaly": 227.0539,
        "meta_ephemeris_type": 0,
        "meta_classification_type": "U",
        "meta_norad_cat_id": 66510,
        "meta_element_set_no": 999,
        "meta_rev_at_epoch": 460,
        "meta_bstar": -0.028809354,
        "meta_mean_motion_dot": -0.02025005,
        "meta_mean_motion_ddot": 0,
        "tle_line1": "1 66510U 25263AB  25340.33335648 -.02025005  00000+0 -28809-1 0  9998",
        "tle_line2": "2 66510  42.9995 162.5898 0001355 268.0002 227.0539 15.59095922  4604"
      },
      "geometry": {
        "type": "Point",
        "coordinates": [
          -42.57231919673377,
          19.619038322690624
        ]
      }
    }
  ]
}